P/2019 GG21 (PANSTARRS),e,6.0861,340.5619,208.5884,7.468358,0.0482910,0.47170604,92.8289,08/13.0/2024,2000,g 12.0,4.0
# From MPEC 2022-M21
C/2019 H1 (NEOWISE),e,104.3756,269.3052,19.2832,236.0830,0.0002717,0.99219864,0.0000,04/27.5197/2019,2000,g 15.5,4.0
# From MPEC 2023-A50
C/2019 J1 (Lemmon),e,24.5272,98.2175,167.6433,67.14294,0.0017914,0.96299071,3.5032,08/13.0/2024,2000,g 12.0,4.0
# From MPEC 2021-R75
C/2019 J2 (Palomar),e,105.2453,25.5235,98.6101,160.7697,0.0004835,0.98931501,0.0000,07/20.7920/2019,2000,g 13.0,4.0
# From MPC117071
C/2019 J3 (ATLAS),h,08/02.3739/2019,131.3058,270.6462,16.5434,1.000248,2.364927,2000,13.5,4.0
# From MPEC 2022-M21
C/2019 JU6 (ATLAS),h,06/02.6909/2019,148.3201,21.7393,94.8833,1.000023,2.036742,2000,14.5,4.0
# From MPEC 2022-O08
C/2019 K1 (ATLAS),e,87.0160,73.3093,265.7544,4060,0.0000038,0.99950295,0.0000,02/11.7685/2020,2000,g 10.0,4.0
# From MPC119997
C/2019 K4 (Ye),e,105.2947,180.2220,139.9819,1547,0.0000162,0.99853000,0.0000,06/15.2750/2019,2000,g 12.5,4.0
# From MPEC 2021-P47
C/2019 K5 (Young),e,15.3060,177.2231,175.1515,169.6699,0.0004460,0.98791608,0.0000,06/22.2423/2019,2000,g 13.0,4.0
# From MPEC 2021-P47
C/2019 K6 (PANSTARRS),e,132.3810,42.9984,187.4911,1101,0.0000270,0.99643885,0.0000,05/19.2796/2020,2000,g 11.5,4.0
# From MPEC 2024-GJ3
C/2019 K7 (Smith),h,06/17.5279/2020,103.5001,308.0117,27.3948,1.000804,4.476949,2000,6.0,4.0
# From MPEC 2021-R75
C/2019 K8 (ATLAS),e,93.0786,291.0067,85.3622,1978,0.0000112,0.99838437,0.0000,07/21.0392/2019,2000,g 11.5,4.0
# From MPEC 2023-A50
C/2019 L1 (PANSTARRS),e,9.9742,254.4275,50.0473,9.828457,0.0319872,0.70455243,58.5753,08/13.0/2024,2000,g 13.5,4.0
# From MPC115886
C/2019 L2 (NEOWISE),e,152.1849,12.5639,18.8645,25.12789,0.0078247,0.93534764,15.3288,08/13.0/2024,2000,g 16.0,4.0
# From MPEC 2024-GJ3
P/2019 LD2 (ATLAS),e,11.6004,179.2996,117.5970,5.190085,0.0833571,0.12805688,137.0623,08/13.0/2024,2000,g  8.5,4.0
# From MPEC 2024-P23
C/2019 L3 (ATLAS),h,01/09.9192/2022,48.3444,290.7385,171.6851,1.002719,3.555836,2000,4.5,4.0
# From MPEC 2020-K19
P/2019 LM4 (Palomar),e,36.4182,72.8429,68.2577,5.703603,0.0723569,0.58560402,136.1938,08/13.0/2024,2000,g  9.5,4.0
# From MPC118095
C/2019 LB7 (Kleyna),e,164.2863,3.9406,336.7046,34.91247,0.0047779,0.92851336,9.3945,08/13.0/2024,2000,g 17.0,4.0
# From MPEC 2024-DC6
P/2019 M2 (ATLAS),e,12.2661,307.6084,332.5222,3.030247,0.1868474,0.64730287,351.3731,08/13.0/2024,2000,g 21.2,4.0
# From MPC118095
C/2019 M3 (ATLAS),e,99.5922,154.9954,87.9267,4731,0.0000030,0.99948743,0.0000,12/31.3145/2018,2000,g 12.2,4.0
# From MPEC 2023-JA2
C/2019 M4 (TESS),h,09/11.0387/2019,65.6792,52.6488,260.3644,1.001759,9.190761,2000,5.0,4.0
# From MPEC 2023-C45
C/2019 N1 (ATLAS),e,82.4685,13.5477,193.3645,1080,0.0000278,0.99842202,0.0000,11/30.7755/2020,2000,g  7.5,4.0
# From MPEC 2023-CD8
A/2019 N2,e,89.3384,276.1996,347.1334,1329,0.0000204,0.99853658,0.0000,08/22.5973/2019,2000,g 12.5,2.0
# From MPEC 2022-A21
C/2019 NJ3 (Lemmon),h,10/22.6756/2020,99.3724,142.4871,246.8892,1.001841,4.363189,2000,9.0,4.0
# From MPEC 2024-O39
C/2019 O2 (PANSTARRS),e,93.3110,48.2585,129.5984,58.49034,0.0022033,0.83446746,1.0897,08/13.0/2024,2000,g  5.0,4.0
# From MPEC 2024-PC5
C/2019 O3 (Palomar),h,03/09.3242/2021,89.8065,300.4586,60.1252,1.003827,8.821315,2000,3.5,4.0
# From MPEC 2021-P47
A/2019 O4,e,115.0510,354.9287,61.8588,33.26524,0.0051371,0.89042213,8.4502,08/13.0/2024,2000,g 15.5,2.0
# From MPEC 2024-EF7
C/2019 Q1 (Lemmon),h,07/21.6148/2020,155.7300,42.4582,56.2515,1.001925,5.004965,2000,8.5,4.0
# From MPC117072
A/2019 Q2,e,159.0034,188.0644,176.4749,58.53856,0.0022006,0.97841828,0.0000,07/22.8354/2019,2000,g 18.0,2.0
# From MPC117072
P/2019 S2 (PANSTARRS),e,10.4641,93.1832,217.0472,4.745852,0.0953307,0.20488512,190.8563,08/13.0/2024,2000,g 13.5,4.0
# From MPEC 2022-CN4
P/2019 S3 (PANSTARRS),e,8.6935,150.1546,213.0780,3.415048,0.1561740,0.47092283,282.9913,08/13.0/2024,2000,g 18.3,4.0
# From MPEC 2021-S45
C/2019 S4 (Lemmon),e,92.1079,63.1584,71.3731,242.9600,0.0002603,0.98583692,0.0000,04/08.7197/2020,2000,g 11.0,4.0
# From MPEC 2023-N01
A/2019 T1,e,120.8515,6.9412,91.0314,38.83240,0.0040730,0.88983733,5.3192,08/13.0/2024,2000,g 13.0,2.0
# From MPEC 2023-R20
C/2019 T2 (Lemmon),e,111.4199,155.6564,239.4147,4736,0.0000030,0.99944157,0.0000,04/22.6714/2021,2000,g  9.0,4.0
# From MPEC 2023-UR6
C/2019 T3 (ATLAS),e,121.8517,139.5349,112.4699,3521,0.0000047,0.99830945,0.0000,03/04.3807/2021,2000,g  6.8,4.0
# From MPEC 2024-PC5
C/2019 T4 (ATLAS),e,53.6277,199.9275,351.1211,885.1695,0.0000374,0.99521051,0.0000,06/08.6766/2022,2000,g  5.0,4.0
# From MPEC 2021-P47
P/2019 T5 (ATLAS),e,33.4985,247.6113,189.5954,8.003188,0.0435321,0.80982695,79.9736,08/13.0/2024,2000,g 15.0,4.0
# From MPEC 2021-P47
P/2019 T6 (PANSTARRS),e,18.7000,71.2443,329.0311,5.440805,0.0776621,0.62288938,135.0490,08/13.0/2024,2000,g 15.5,4.0
# From MPC118096
P/2019 U4 (PANSTARRS),e,11.6971,200.0152,181.0562,3.519524,0.1492719,0.47591147,266.9439,08/13.0/2024,2000,g 19.0,4.0
# From MPEC 2024-LE0
C/2019 U5 (PANSTARRS),h,03/29.6491/2023,113.5134,2.6281,181.4634,1.000720,3.623855,2000,4.5,4.0
# From MPEC 2022-H04
C/2019 U6 (Lemmon),e,60.9665,235.7877,329.4758,313.6985,0.0001774,0.99709972,0.0000,06/18.2563/2020,2000,g 10.0,4.0
# From MPEC 2022-N37
C/2019 V1 (Borisov),e,61.9425,83.1492,51.1750,1974,0.0000112,0.99843346,0.0000,07/16.9875/2020,2000,g 11.0,4.0
# From MPEC 2022-L66
P/2019 V2 (Groeller),e,11.8071,189.1661,335.6339,7.495209,0.0480318,0.33147316,67.0648,08/13.0/2024,2000,g 10.0,4.0
# From MPEC 2023-A50
P/2019 W1 (PANSTARRS),e,23.4726,35.3737,18.8230,4.548698,0.1015952,0.26730362,195.1684,08/13.0/2024,2000,g 12.9,4.0
# From MPEC 2021-P47
P/2019 X1 (Pruyne),e,10.2493,43.6798,36.8912,6.176882,0.0642022,0.30396631,118.5969,08/13.0/2024,2000,g 10.4,4.0
# From MPEC 2020-C98
P/2019 X2 (Pan-STARRS),e,15.8954,250.8405,213.4667,3.635386,0.1421930,0.50026007,242.7848,08/13.0/2024,2000,g 18.0,4.0
# From MPC119999
C/2019 Y1 (ATLAS),e,73.3544,31.5263,57.9071,87.58130,0.0012025,0.99055449,0.0000,03/16.7137/2020,2000,g 13.7,4.0
# From MPEC 2020-K19
P/2019 Y2 (Fuls),e,4.8765,80.2432,93.3851,3.487421,0.1513378,0.37664050,252.2349,08/13.0/2024,2000,g  9.0,4.0
# From MPEC 2020-C98
P/2019 Y3 (Catalina),e,24.5983,139.2956,2.5712,3.015153,0.1882522,0.69115190,321.9398,08/13.0/2024,2000,g 18.5,4.0
# From MPEC 2024-A43
C/2019 Y4 (ATLAS),e,45.0398,120.7448,177.4345,346.8973,0.0001525,0.99926008,0.0000,05/30.3267/2020,2000,g 11.8,6.0
# From MPEC 2020-L06
C/2019 Y4-A (ATLAS),h,05/30.3662/2020,45.4781,121.1100,177.2678,1.001398,0.254835,2000,11.6,6.0
# From MPEC 2023-J29
C/2019 Y4-B (ATLAS),e,45.1693,120.8521,177.3787,31101,0.0000002,0.99999176,0.0000,05/30.3369/2020,2000,g 12.1,6.0
# From MPEC 2020-L06
C/2019 Y4-C (ATLAS),h,05/30.3184/2020,45.2612,120.8371,177.3009,1.002125,0.255910,2000,12.7,6.0
# From MPEC 2020-L06
C/2019 Y4-D (ATLAS),e,45.3107,121.2036,177.4410,67.92915,0.0017604,0.99624291,0.0000,05/30.4336/2020,2000,g 12.5,6.0
# From MPEC 2023-A50
C/2019 Y5 (PANSTARRS),e,82.7622,51.7513,303.6235,708.2723,0.0000523,0.99304245,0.0000,08/17.2178/2019,2000,g 11.0,4.0
# From MPEC 2023-A50
A/2020 A1,e,149.0326,119.1176,302.4179,25.50686,0.0076510,0.93461067,13.1351,08/13.0/2024,2000,g 18.0,2.0
# From MPEC 2022-YN2
C/2020 A2 (Iwamoto),e,120.5442,286.2255,68.0263,1110,0.0000267,0.99912233,0.0000,01/07.9552/2020,2000,g 13.5,4.0
# From MPEC 2023-A50
C/2020 A3 (ATLAS),e,146.6378,120.8031,268.2830,27320,0.0000002,0.99978937,0.0000,06/28.0683/2019,2000,g  8.0,4.0
# From MPEC 2022-P91
P/2020 A4 (PANSTARRS-Lemmon),e,24.9959,312.3232,144.8264,8.198090,0.0419890,0.65441659,72.3939,08/13.0/2024,2000,g 15.0,4.0
# From MPEC 2020-N08
A/2020 B1,e,18.5298,309.8697,154.7886,51.76235,0.0026466,0.96641528,4.4750,08/13.0/2024,2000,g 21.0,2.0
# From MPEC 2020-HN5
C/2020 B2 (Lemmon),e,55.7523,354.2438,143.5959,67.69505,0.0017696,0.95926920,2.9376,08/13.0/2024,2000,g 10.0,4.0
# From MPEC 2022-N37
C/2020 B3 (Rankin),e,20.7076,185.8041,324.8865,966.1323,0.0000328,0.99655325,0.0000,10/20.0469/2019,2000,g 13.0,4.0
# From MPEC 2023-KD6
P/2020 B4 (Sheppard),e,11.6061,185.9685,341.9870,7.969346,0.0438097,0.19237877,43.7565,08/13.0/2024,2000,g 10.5,4.0
# From MPEC 2024-PC5
C/2020 F2 (ATLAS),h,07/13.4908/2022,163.5895,250.3038,48.2743,1.004077,8.814526,2000,4.5,4.0
# From MPEC 2021-O56
C/2020 F3 (NEOWISE),e,129.1536,61.0971,37.3871,386.6885,0.0001296,0.99923798,0.0000,07/04.3680/2020,2000,g  7.5,5.2
# From MPEC 2024-BE0
C/2020 F5 (MASTER),e,52.2153,350.5124,310.6650,168.2699,0.0004515,0.97428649,0.0000,03/16.7565/2021,2000,g  6.5,3.2
# From MPEC 2020-L06
C/2020 F6 (PANSTARRS),e,174.5833,207.8801,344.4231,366.2935,0.0001406,0.99044528,0.0000,04/11.1865/2020,2000,g 14.5,2.8
# From MPEC 2024-A43
C/2020 F7 (Lemmon),e,93.9646,321.8421,227.9559,554.4122,0.0000755,0.99038057,0.0000,11/13.6383/2021,2000,g  7.0,4.0
# From MPEC 2023-J29
C/2020 F8 (SWAN),h,05/26.5680/2020,110.5621,259.8093,68.0776,1.000113,0.430767,2000,10.0,4.0
# From MPEC 2020-L06
P/2020 G1 (Pimentel),e,18.5117,240.1111,207.6222,3.607430,0.1438491,0.86073348,231.3742,08/13.0/2024,2000,g 17.0,4.0
# From MPEC 2022-YB4
C/2020 H2 (Pruyne),e,124.8141,277.6713,26.6139,182.7446,0.0003990,0.99546255,0.0000,04/27.5301/2020,2000,g 14.0,3.2
# From MPEC 2020-HM1
C/2020 H3 (Wierzchos),p,06/05.7162/2020,62.5292,30.4456,2.300288,270.6227,2000,13.5,4.0
# From MPEC 2020-L06
C/2020 H4 (Leonard),e,84.4954,307.5438,117.5318,47.81766,0.0029807,0.98065154,0.0000,08/29.5222/2020,2000,g 15.0,3.2
# From MPEC 2024-P23
C/2020 H5 (Robinson),e,70.2481,210.6248,326.2840,4846,0.0000029,0.99807329,0.0000,12/10.0542/2020,2000,g  5.0,4.0
# From MPEC 2024-JU4
C/2020 H6 (ATLAS),e,79.9796,213.7133,20.2351,2714,0.0000070,0.99826847,0.0000,09/30.0214/2021,2000,g  8.0,3.2
# From MPEC 2020-KB7
C/2020 H7 (Lemmon),e,135.9235,323.5194,82.6780,1405,0.0000187,0.99685380,0.0000,06/02.9510/2020,2000,g 11.0,4.0
# From MPEC 2021-N06
